284P/McNaught,e,11.8590,144.2899,202.7311,3.673040,0.1400121,0.37571356,239.0561,05/04.0/2019,2000,g 13.0,4.0
# From MPC 85339
285P/LINEAR,e,25.0147,185.4762,178.4187,4.509362,0.1029275,0.61757492,220.9898,05/04.0/2019,2000,g 15.0,4.0
# From MPC 90771
286P/Christensen,e,17.0440,283.9608,24.6942,4.113455,0.1181392,0.42476950,229.4908,05/04.0/2019,2000,g 14.0,4.0
# From MPC 96868
287P/Christensen,e,16.3136,139.0318,188.7988,4.170582,0.1157202,0.26993910,183.7253,05/04.0/2019,2000,g 13.5,4.0
# From unp
288P/,e,3.2403,83.1876,280.8445,3.047153,0.1852946,0.20125911,168.1370,05/04.0/2019,2000,g 16.0,2.0
# From MPC102102
289P/Blanpain,e,5.8976,68.9263,9.8398,3.045362,0.1854581,0.68508916,317.1626,05/04.0/2019,2000,g 10.0,4.0
# From MPC 95214
290P/Jager,e,19.2152,303.2241,180.9649,6.130684,0.0649293,0.64779182,121.9798,05/04.0/2019,2000,g 10.5,4.0
# From MPC 89314
291P/NEAT,e,6.3763,238.3438,174.5721,4.487127,0.1036935,0.44039408,208.1668,05/04.0/2019,2000,g 13.0,4.0
# From MPC110085
292P/Li,e,24.2516,91.0039,319.5335,6.113974,0.0651957,0.58718587,125.1535,05/04.0/2019,2000,g 12.5,4.0
# From MPC 92278
293P/Spacewatch,e,9.0573,78.4089,41.1481,3.641435,0.1418389,0.41813958,275.5361,05/04.0/2019,2000,g 14.5,4.0
# From MPC 89013
294P/LINEAR,e,18.2141,312.5999,235.5253,3.205233,0.1717571,0.59425577,323.9803,05/04.0/2019,2000,g 15.5,4.0
# From MPC 93589
295P/LINEAR,e,21.0805,7.4635,73.0004,5.306849,0.0806211,0.61626769,146.7372,05/04.0/2019,2000,g 12.0,4.0
# From MPC 92278
296P/Garradd,e,25.2353,263.6419,350.0756,3.498059,0.1506480,0.47851531,284.2472,05/04.0/2019,2000,g 14.0,4.0
# From MPC102956
297P/Beshore,e,10.3284,97.6609,132.4002,3.444626,0.1541669,0.31949260,262.9520,05/04.0/2019,2000,g 15.0,4.0
# From MPC105243
298P/Christensen,e,7.8715,52.8311,100.7273,3.593253,0.1447013,0.38707716,288.8900,05/04.0/2019,2000,g 15.0,4.0
# From MPC101100
299P/Catalina-PANSTARRS,e,10.4779,271.6235,323.8556,4.381936,0.1074496,0.28253713,164.3059,05/04.0/2019,2000,g 11.5,4.0
# From MPC111774
300P/Catalina,e,5.6765,95.6705,222.8542,2.699693,0.2221941,0.69152338,40.6487,05/04.0/2019,2000,g 16.0,4.0
# From MPC 89014
301P/LINEAR-NEAT,e,10.3537,351.1787,193.7269,5.735557,0.0717531,0.58647178,122.3965,05/04.0/2019,2000,g 13.0,4.0
# From MPC108598
302P/Lemmon-PANSTARRS,e,6.0327,121.7537,208.1570,4.279029,0.1113490,0.22924870,122.3319,05/04.0/2019,2000,g 12.5,4.0
# From MPC 92278
303P/NEAT,e,7.0115,347.9790,356.8464,5.052123,0.0867947,0.50930038,144.3604,05/04.0/2019,2000,g 13.5,4.0
# From MPC 92987
304P/Ory,e,2.6169,59.0309,335.0668,3.156119,0.1757818,0.60182248,278.1237,05/04.0/2019,2000,g 16.5,4.0
# From MPC101100
305P/Skiff,e,11.6364,240.1484,147.2768,4.646479,0.0984052,0.69229475,160.5042,05/04.0/2019,2000,g 18.0,4.0
# From MPC 92278
306P/LINEAR,e,8.3108,341.4128,0.7959,3.121763,0.1786916,0.59338253,312.8518,05/04.0/2019,2000,g 19.0,4.0
# From MPC 91619
307P/LINEAR,e,4.4277,158.1024,222.2314,5.798543,0.0705872,0.67334096,112.7291,05/04.0/2019,2000,g 15.0,4.0
# From MPC109148
308P/Lagerkvist-Carsenty,e,4.8489,63.1315,333.7445,6.614023,0.0579436,0.36210337,84.5972,05/04.0/2019,2000,g 13.0,2.0
# From MPC 94284
309P/LINEAR,e,17.0415,10.2173,50.0049,4.368948,0.1079291,0.61808891,166.3730,05/04.0/2019,2000,g 15.0,4.0
# From MPC 98566
310P/Hill,e,13.1341,8.9463,31.9558,4.175809,0.1155030,0.42205626,170.9947,05/04.0/2019,2000,g 13.5,4.0
# From MPC109593
311P/PANSTARRS,e,4.9688,279.2273,144.2852,2.189550,0.3042089,0.11510533,201.2980,05/04.0/2019,2000,g 17.0,4.0
# From MPC 92279
312P/NEAT,e,19.7570,144.7534,207.5854,3.465850,0.1527529,0.42863608,282.0831,05/04.0/2019,2000,g 16.0,4.0
# From MPC111774
313P/Gibbs,e,10.9805,105.9715,254.4412,3.164383,0.1750937,0.23537285,299.3224,05/04.0/2019,2000,g 15.0,4.0
# From MPC105243
314P/Montani,e,3.9789,267.6221,214.2158,7.279829,0.0501790,0.41713753,46.9609,05/04.0/2019,2000,g  9.5,4.0
# From MPC111774
315P/LONEOS,e,17.9816,69.4661,66.1177,4.976186,0.0887890,0.52151468,78.0093,05/04.0/2019,2000,g 11.0,4.0
# From MPC 92279
316P/LONEOS-Christensen,e,9.9066,246.7680,193.6667,4.330293,0.1093775,0.16513809,139.6260,05/04.0/2019,2000,g 13.5,4.0
# From MPC102103
317P/WISE,e,11.9505,275.5194,334.8735,2.966408,0.1929114,0.57045747,261.3978,05/04.0/2019,2000,g 17.5,4.0
# From MPC102103
318P/McNaught-Hartley,e,17.8702,35.7012,313.0840,7.497083,0.0480137,0.67437327,61.9047,05/04.0/2019,2000,g  8.5,6.0
# From MPC 97499
319P/Catalina-McNaught,e,15.0927,111.3720,203.5917,3.570381,0.1460939,0.66607176,204.7583,05/04.0/2019,2000,g 15.0,4.0
# From MPC 95736
320P/McNaught,e,4.9079,295.9237,0.7447,3.095230,0.1809942,0.68552291,247.0256,05/04.0/2019,2000,g 20.5,4.0
# From MPEC 2017-L52
321P/SOHO,e,20.0350,165.0490,172.7176,2.422722,0.2613657,0.98104361,0.0000,01/17.2585/2020,2000,g 20.0,4.0
# From MPC102103
322P/SOHO,e,11.4687,351.5326,56.8734,2.509406,0.2479406,0.97979669,0.0000,08/31.5138/2019,2000,g 19.0,4.0
# From MPC102957
323P/SOHO,e,4.6936,322.9776,354.3436,2.583014,0.2374182,0.98476289,0.0000,01/17.9504/2021,2000,g 20.0,4.0
# From MPC108598
324P/La Sagra,e,21.4239,270.6427,58.2860,3.093591,0.1811380,0.15436291,226.7638,05/04.0/2019,2000,g 13.0,4.0
# From MPEC 2019-F55
325P/Yang-Gao,e,16.7035,257.5798,343.6650,3.524290,0.1489693,0.59399277,202.1569,05/04.0/2019,2000,g 14.0,4.0
# From MPC103849
326P/Hill,e,2.4707,99.8144,278.6458,4.066008,0.1202131,0.31680265,155.1349,05/04.0/2019,2000,g 13.5,4.0
# From MPC 97499
327P/Van Ness,e,36.2241,173.9621,185.0297,3.563856,0.1464953,0.56230341,181.5301,05/04.0/2019,2000,g 16.0,4.0
# From MPC109148
328P/LONEOS-Tucker,e,17.6570,341.6026,30.5246,4.198106,0.1145840,0.55094381,140.6357,05/04.0/2019,2000,g 14.5,4.0
# From MPC101101
329P/LINEAR-Catalina,e,21.6627,87.6873,343.6089,5.195531,0.0832260,0.67713483,103.9625,05/04.0/2019,2000,g 13.5,4.0
# From MPC105243
330P/Catalina,e,15.6725,293.1766,188.8610,6.636080,0.0576550,0.55094259,56.2929,05/04.0/2019,2000,g 12.0,4.0
# From MPC110497
331P/Gibbs,e,9.7401,216.7870,183.1067,3.003972,0.1893042,0.04039489,263.1415,05/04.0/2019,2000,g 12.0,4.0
# From MPEC 2016-K18
332P/Ikeya-Murakami,e,9.3839,3.7931,152.4187,3.086836,0.1817330,0.48966193,207.8020,05/04.0/2019,2000,g 18.0,4.0
# From MPC 99822
332P-A/Ikeya-Murakami,e,9.3839,3.7932,152.4185,3.086836,0.1817330,0.48966172,207.8020,05/04.0/2019,2000,g 18.0,4.0
# From MPEC 2016-EI8
332P-B/Ikeya-Murakami,e,9.3805,3.8028,152.3711,3.082329,0.1821317,0.48970701,359.9699,03/17.0/2016,2000,g 19.0,4.0
# From MPC 99822
332P-C/Ikeya-Murakami,e,9.3830,3.7935,152.4099,3.086802,0.1817360,0.48966667,207.8137,05/04.0/2019,2000,g 16.5,4.0
# From MPEC 2016-ED0
332P-D/Ikeya-Murakami,e,9.3761,3.7923,152.4393,3.081138,0.1822373,0.48977814,359.9486,03/17.0/2016,2000,g 19.0,4.0
# From MPEC 2016-ED0
332P-E/Ikeya-Murakami,e,9.3774,3.8228,152.2825,3.079877,0.1823493,0.48922008,359.9889,03/17.0/2016,2000,g 21.0,4.0
# From MPEC 2016-ED0
332P-F/Ikeya-Murakami,e,9.5293,3.4757,152.8203,3.163214,0.1751908,0.49918860,359.8501,03/17.0/2016,2000,g 21.0,4.0
# From MPEC 2016-ED0
332P-G/Ikeya-Murakami,e,9.2523,3.6955,154.4000,3.050519,0.1849880,0.49200362,359.9006,03/19.0/2016,2000,g 19.0,4.0
# From MPEC 2016-K18
332P-H/Ikeya-Murakami,e,9.3835,3.7933,152.4107,3.086986,0.1817197,0.48970241,207.7621,05/04.0/2019,2000,g 19.0,4.0
# From MPEC 2016-ED0
332P-I/Ikeya-Murakami,e,9.3791,3.8048,152.3297,3.081767,0.1821815,0.48955490,359.9360,03/17.0/2016,2000,g 20.5,2.0
# From MPEC 2016-EI8
332P-J/Ikeya-Murakami,e,9.4296,3.6729,152.7712,3.115165,0.1792596,0.49429435,359.8613,03/17.0/2016,2000,g 22.5,2.0
# From MPC104796
333P/LINEAR,e,131.8844,115.5821,26.1136,4.222578,0.1135893,0.73594990,127.8597,05/04.0/2019,2000,g 15.0,4.0
# From MPC111774
334P/NEAT,e,19.8823,91.2330,84.3203,6.743417,0.0562839,0.37415618,39.8977,05/04.0/2019,2000,g 10.5,4.0
# From MPC 10028
335P/Gibbs,e,7.2884,330.8436,162.2668,3.579222,0.1455530,0.54472692,185.7074,05/04.0/2019,2000,g 17.0,4.0
# From MPC105244
336P/McNaught,e,17.8346,298.2401,308.6205,5.026568,0.0874574,0.44614025,71.6831,05/04.0/2019,2000,g 13.5,4.0
# From MPC112394
337P/WISE,e,15.3720,106.0739,160.9410,3.288044,0.1653095,0.49696170,169.3197,05/04.0/2019,2000,g 17.0,4.0
# From MPC104796
338P/McNaught,e,25.3557,9.7936,4.4387,3.900425,0.1279488,0.41042947,114.2785,05/04.0/2019,2000,g 12.0,4.0
# From MPC101101
339P/Gibbs,e,5.7401,172.7687,27.5041,3.694054,0.1388191,0.63652716,140.7674,05/04.0/2019,2000,g 17.0,4.0
# From MPC102957
340P/Boattini,e,2.0793,291.7293,35.7593,4.252201,0.1124044,0.28013482,100.7527,05/04.0/2019,2000,g 13.0,4.0
# From MPC109148
341P/Gibbs,e,3.7934,30.0355,312.0807,4.296605,0.1106665,0.41437179,118.6451,05/04.0/2019,2000,g 12.5,4.0
# From MPC101101
342P/SOHO,e,12.9576,43.9353,57.4921,3.041794,0.1857845,0.98267070,0.0000,10/20.7927/2021,2000,g 20.0,4.0
# From MPC109148
343P/NEAT-LONEOS,e,5.5828,257.2520,137.4375,5.466563,0.0771139,0.58326229,63.7362,05/04.0/2019,2000,g 14.0,4.0
# From MPC109148
344P/Read,e,3.4902,273.1927,140.5124,4.871541,0.0916652,0.42117648,83.8093,05/04.0/2019,2000,g 13.0,4.0
# From MPC109148
345P/LINEAR,e,2.7253,154.4996,196.3808,4.042838,0.1212480,0.21983903,123.9903,05/04.0/2019,2000,g 12.0,4.0
# From MPC110086
346P/Catalina,e,22.1840,102.4758,336.0417,4.477227,0.1040376,0.50297340,84.0419,05/04.0/2019,2000,g 14.0,4.0
# From MPC108599
347P/PANSTARRS,e,11.7475,261.0531,98.3062,3.609136,0.1437471,0.38467421,138.6785,05/04.0/2019,2000,g 15.0,4.0
# From MPC104796
348P/PANSTARRS,e,17.6340,313.1078,134.6830,3.165606,0.1749922,0.30349707,182.3561,05/04.0/2019,2000,g 14.0,4.0
# From MPC112394
349P/Lemmon,e,5.4924,331.7621,255.9839,3.570300,0.1460989,0.29998985,89.9158,05/04.0/2019,2000,g 14.0,4.0
# From MPC111775
350P/McNaught,e,7.3648,65.4887,143.3912,4.113850,0.1181222,0.09067609,57.0589,05/04.0/2019,2000,g 14.0,4.0
# From MPC105244
351P/PANSTARRS,e,12.7897,283.4523,352.5270,4.435741,0.1055006,0.29627410,133.2633,05/04.0/2019,2000,g 12.5,4.0
# From MPC110086
352P/Skiff,e,21.0129,28.1461,309.0763,6.631163,0.0577191,0.61773104,39.3238,05/04.0/2019,2000,g 11.5,4.0
